[
    {
        "Altitude(m)": 558431.0980114006,
        "Argument of Periapsis(deg)": 0.0,
        "Eccentricity": 0.0,
        "Inclination(deg)": 53.0,
        "Latitude(deg)": 46.734029938061354,
        "Longitude(deg)": -22.198350894418166,
        "Mean Anomaly(deg)": 65.4545,
        "RAAN(deg)": 25.0,
        "Satellite Name": "Starlink Shell 1 114",
        "Satellite Number": 114,
        "Semi-Major Axis(m)": 6931778.249405717,
        "Time(s)": 0
    },
    {
        "Altitude(m)": 558499.6080010026,
        "Argument of Periapsis(deg)": 0.00034857847951123687,
        "Eccentricity": 0.0,
        "Inclination(deg)": 53.0,
        "Latitude(deg)": 47.03451616057466,
        "Longitude(deg)": -21.436376583743595,
        "Mean Anomaly(deg)": 66.0813312035567,
        "RAAN(deg)": 24.999481229922527,
        "Satellite Name": "Starlink Shell 1 114",
        "Satellite Number": 114,
        "Semi-Major Axis(m)": 6931778.249405717,
        "Time(s)": 10
    },
    {
        "Altitude(m)": 558566.8994829337,
        "Argument of Periapsis(deg)": 0.0006971569590224737,
        "Eccentricity": 0.0,
        "Inclination(deg)": 53.0,
        "Latitude(deg)": 47.32929123068229,
        "Longitude(deg)": -20.665428578465377,
        "Mean Anomaly(deg)": 66.70816240711342,
        "RAAN(deg)": 24.998962459845053,
        "Satellite Name": "Starlink Shell 1 114",
        "Satellite Number": 114,
        "Semi-Major Axis(m)": 6931778.249405717,
        "Time(s)": 20
    },
    {
        "Altitude(m)": 558632.9309590914,
        "Argument of Periapsis(deg)": 0.0010457354385337105,
        "Eccentricity": 0.0,
        "Inclination(deg)": 53.0,
        "Latitude(deg)": 47.61823321259793,
        "Longitude(deg)": -19.885490575300345,
        "Mean Anomaly(deg)": 67.33499361067014,
        "RAAN(deg)": 24.998443689767583,
        "Satellite Name": "Starlink Shell 1 114",
        "Satellite Number": 114,
        "Semi-Major Axis(m)": 6931778.249405717,
        "Time(s)": 30
    },
    {
        "Altitude(m)": 558697.6617750733,
        "Argument of Periapsis(deg)": 0.0013943139180449475,
        "Eccentricity": 0.0,
        "Inclination(deg)": 53.0,
        "Latitude(deg)": 47.90121932337207,
        "Longitude(deg)": -19.096555842224795,
        "Mean Anomaly(deg)": 67.96182481422684,
        "RAAN(deg)": 24.99792491969011,
        "Satellite Name": "Starlink Shell 1 114",
        "Satellite Number": 114,
        "Semi-Major Axis(m)": 6931778.249405717,
        "Time(s)": 40
    },
    {
        "Altitude(m)": 558761.0521403127,
        "Argument of Periapsis(deg)": 0.0017428923975561844,
        "Eccentricity": 0.0,
        "Inclination(deg)": 53.0,
        "Latitude(deg)": 48.1781260738551,
        "Longitude(deg)": -18.298628786237945,
        "Mean Anomaly(deg)": 68.58865601778358,
        "RAAN(deg)": 24.997406149612633,
        "Satellite Name": "Starlink Shell 1 114",
        "Satellite Number": 114,
        "Semi-Major Axis(m)": 6931778.249405717,
        "Time(s)": 50
    },
    {
        "Altitude(m)": 558823.0631477622,
        "Argument of Periapsis(deg)": 0.002091470877067421,
        "Eccentricity": 0.0,
        "Inclination(deg)": 53.0,
        "Latitude(deg)": 48.448829420723165,
        "Longitude(deg)": -17.49172500648659,
        "Mean Anomaly(deg)": 69.21548722134028,
        "RAAN(deg)": 24.996887379535163,
        "Satellite Name": "Starlink Shell 1 114",
        "Satellite Number": 114,
        "Semi-Major Axis(m)": 6931778.249405717,
        "Time(s)": 60
    },
    {
        "Altitude(m)": 558883.656793114,
        "Argument of Periapsis(deg)": 0.0024400493565786582,
        "Eccentricity": 0.0,
        "Inclination(deg)": 53.0,
        "Latitude(deg)": 48.71320492969561,
        "Longitude(deg)": -16.675871342181658,
        "Mean Anomaly(deg)": 69.842318424897,
        "RAAN(deg)": 24.996368609457694,
        "Satellite Name": "Starlink Shell 1 114",
        "Satellite Number": 114,
        "Semi-Major Axis(m)": 6931778.249405717,
        "Time(s)": 70
    },
    {
        "Altitude(m)": 558942.7959935762,
        "Argument of Periapsis(deg)": 0.002788627836089895,
        "Eccentricity": 0.0,
        "Inclination(deg)": 53.0,
        "Latitude(deg)": 48.97112795000659,
        "Longitude(deg)": -15.851107424450944,
        "Mean Anomaly(deg)": 70.4691496284537,
        "RAAN(deg)": 24.995849839380217,
        "Satellite Name": "Starlink Shell 1 114",
        "Satellite Number": 114,
        "Semi-Major Axis(m)": 6931778.249405717,
        "Time(s)": 80
    },
    {
        "Altitude(m)": 559000.4446061702,
        "Argument of Periapsis(deg)": 0.0031372063156011316,
        "Eccentricity": 0.0,
        "Inclination(deg)": 53.0,
        "Latitude(deg)": 49.22247380012771,
        "Longitude(deg)": -15.017485702371,
        "Mean Anomaly(deg)": 71.09598083201043,
        "RAAN(deg)": 24.995331069302747,
        "Satellite Name": "Starlink Shell 1 114",
        "Satellite Number": 114,
        "Semi-Major Axis(m)": 6931778.249405717,
        "Time(s)": 90
    },
    {
        "Altitude(m)": 559056.5674455418,
        "Argument of Periapsis(deg)": 0.0034857847951123688,
        "Eccentricity": 0.0,
        "Inclination(deg)": 53.0,
        "Latitude(deg)": 49.46711796465159,
        "Longitude(deg)": -14.17507145176761,
        "Mean Anomaly(deg)": 71.72281203556715,
        "RAAN(deg)": 24.99481229922527,
        "Satellite Name": "Starlink Shell 1 114",
        "Satellite Number": 114,
        "Semi-Major Axis(m)": 6931778.249405717,
        "Time(s)": 100
    },
    {
        "Altitude(m)": 559111.1303012987,
        "Argument of Periapsis(deg)": 0.003834363274623606,
        "Eccentricity": 0.0,
        "Inclination(deg)": 53.0,
        "Latitude(deg)": 49.70493630215724,
        "Longitude(deg)": -13.32394427513067,
        "Mean Anomaly(deg)": 72.34964323912386,
        "RAAN(deg)": 24.9942935291478,
        "Satellite Name": "Starlink Shell 1 114",
        "Satellite Number": 114,
        "Semi-Major Axis(m)": 6931778.249405717,
        "Time(s)": 110
    },
    {
        "Altitude(m)": 559164.0999548597,
        "Argument of Periapsis(deg)": 0.004182941754134842,
        "Eccentricity": 0.0,
        "Inclination(deg)": 53.0,
        "Latitude(deg)": 49.93580526379192,
        "Longitude(deg)": -12.464198062149654,
        "Mean Anomaly(deg)": 72.97647444268057,
        "RAAN(deg)": 24.99377475907033,
        "Satellite Name": "Starlink Shell 1 114",
        "Satellite Number": 114,
        "Semi-Major Axis(m)": 6931778.249405717,
        "Time(s)": 120
    },
    {
        "Altitude(m)": 559215.4441957766,
        "Argument of Periapsis(deg)": 0.004531520233646079,
        "Eccentricity": 0.0,
        "Inclination(deg)": 53.0,
        "Latitude(deg)": 50.15960212219519,
        "Longitude(deg)": -11.595940918804882,
        "Mean Anomaly(deg)": 73.6033056462373,
        "RAAN(deg)": 24.993255988992853,
        "Satellite Name": "Starlink Shell 1 114",
        "Satellite Number": 114,
        "Semi-Major Axis(m)": 6931778.249405717,
        "Time(s)": 130
    },
    {
        "Altitude(m)": 559265.1318375785,
        "Argument of Periapsis(deg)": 0.0048800987131573164,
        "Eccentricity": 0.0,
        "Inclination(deg)": 53.0,
        "Latitude(deg)": 50.37620521028396,
        "Longitude(deg)": -10.719296572804499,
        "Mean Anomaly(deg)": 74.23013684979401,
        "RAAN(deg)": 24.992737218915384,
        "Satellite Name": "Starlink Shell 1 114",
        "Satellite Number": 114,
        "Semi-Major Axis(m)": 6931778.249405717,
        "Time(s)": 140
    },
    {
        "Altitude(m)": 559313.1327330944,
        "Argument of Periapsis(deg)": 0.005228677192668553,
        "Eccentricity": 0.0,
        "Inclination(deg)": 53.0,
        "Latitude(deg)": 50.58549416931423,
        "Longitude(deg)": -9.834404224436287,
        "Mean Anomaly(deg)": 74.85696805335073,
        "RAAN(deg)": 24.992218448837907,
        "Satellite Name": "Starlink Shell 1 114",
        "Satellite Number": 114,
        "Semi-Major Axis(m)": 6931778.249405717,
        "Time(s)": 150
    },
    {
        "Altitude(m)": 559359.4177892433,
        "Argument of Periapsis(deg)": 0.00557725567217979,
        "Eccentricity": 0.0,
        "Inclination(deg)": 53.0,
        "Latitude(deg)": 50.78735020550999,
        "Longitude(deg)": -8.941418350477452,
        "Mean Anomaly(deg)": 75.48379925690745,
        "RAAN(deg)": 24.991699678760437,
        "Satellite Name": "Starlink Shell 1 114",
        "Satellite Number": 114,
        "Semi-Major Axis(m)": 6931778.249405717,
        "Time(s)": 160
    },
    {
        "Altitude(m)": 559403.9589813019,
        "Argument of Periapsis(deg)": 0.0059258341516910265,
        "Eccentricity": 0.0,
        "Inclination(deg)": 53.0,
        "Latitude(deg)": 50.981656354434094,
        "Longitude(deg)": -8.040509968813529,
        "Mean Anomaly(deg)": 76.11063046046415,
        "RAAN(deg)": 24.99118090868296,
        "Satellite Name": "Starlink Shell 1 114",
        "Satellite Number": 114,
        "Semi-Major Axis(m)": 6931778.249405717,
        "Time(s)": 170
    },
    {
        "Altitude(m)": 559446.7293666647,
        "Argument of Periapsis(deg)": 0.006274412631202263,
        "Eccentricity": 0.0,
        "Inclination(deg)": 53.0,
        "Latitude(deg)": 51.168297752161635,
        "Longitude(deg)": -7.1318663328838845,
        "Mean Anomaly(deg)": 76.73746166402087,
        "RAAN(deg)": 24.99066213860549,
        "Satellite Name": "Starlink Shell 1 114",
        "Satellite Number": 114,
        "Semi-Major Axis(m)": 6931778.249405717,
        "Time(s)": 180
    }
]